GLOBALSTAR M001         
1 25162U 98008A   25258.75531860 -.00000077  00000+0  15006-3 0  9997
2 25162  52.0030  69.6145 0002325  86.8339 286.7545 12.38217371254933
GLOBALSTAR M004         
1 25163U 98008B   25258.82053248 -.00000067  00000+0  20672-3 0  9999
2 25163  51.9994 137.6510 0003554 120.5612 317.5356 12.63403104273144
GLOBALSTAR M002         
1 25164U 98008C   25258.61150073 -.00000068  00000+0  17099-3 0  9991
2 25164  52.0053  13.4790 0000825 329.2081  30.8691 11.61511914194572
GLOBALSTAR M003         
1 25165U 98008D   25258.77438743 -.00000176  00000+0 -92411-3 0  9994
2 25165  51.9944 277.6348 0008312 113.3939  57.6409 12.12060873244206
GLOBALSTAR M014         
1 25306U 98023A   25258.42152147 -.00000075  00000+0  40510-4 0  9992
2 25306  51.9842 295.2866 0001096 156.5260 216.2080 11.65481707201693
GLOBALSTAR M006         
1 25307U 98023B   25258.58733913 -.00000057  00000+0  37512-3 0  9993
2 25307  51.9980 350.7166 0002593 263.8325 200.8252 11.58175713227309
GLOBALSTAR M015         
1 25308U 98023C   25258.78456593 -.00000103  00000+0 -68155-3 0  9992
2 25308  51.9809  92.8460 0011750 235.5154 137.0018 11.48858922204497
GLOBALSTAR M008         
1 25309U 98023D   25258.82516419 -.00000060  00000+0  28219-3 0  9990
2 25309  51.9969 295.2741 0002589  12.9559 156.9463 12.36072180249059
